#aV2015 12 20  0  0  0.00000000     288 DD+AD WGS84 FIT  NGA
## 1876      0.00000000   300.00000000 57376 0.0000000000000
+   31     1  2  3  5  6  7  8  9 10 11 12 13 14 15 16 17 18
+         19 20 21 22 23 24 25 26 27 28 29 30 31 32  0  0  0
+          0  0  0  0  0  0  0  0  0  0  0  0  0  0  0  0  0
+          0  0  0  0  0  0  0  0  0  0  0  0  0  0  0  0  0
+          0  0  0  0  0  0  0  0  0  0  0  0  0  0  0  0  0
++         2  2  2  2  2  2  2  2  2  2  2  2  2  2  2  2  2
++         2  2  2  2  2  2  2  2  2  2  2  2  2  2  0  0  0
++         0  0  0  0  0  0  0  0  0  0  0  0  0  0  0  0  0
++         0  0  0  0  0  0  0  0  0  0  0  0  0  0  0  0  0
++         0  0  0  0  0  0  0  0  0  0  0  0  0  0  0  0  0
%c cc cc ccc ccc cccc cccc cccc cccc ccccc ccccc ccccc ccccc
%c cc cc ccc ccc cccc cccc cccc cccc ccccc ccccc ccccc ccccc
%f  0.0000000  0.000000000  0.00000000000  0.000000000000000
%f  0.0000000  0.000000000  0.00000000000  0.000000000000000
%i    0    0    0    0      0      0      0      0         0
%i    0    0    0    0      0      0      0      0         0
/*      NGA, ST. LOUIS,MO.                                  
/*   EPHEMERIS COMPUTED FROM 2 DAYS OF DATA                 
/*   EPOCHA v2.4 SMOOTHER                                   
/*   G1762 IERS2010 SATAF SATAPC                            
*  2015 12 20 18 50  0.00000000
P  1 -13845.932159  21169.346131   7665.992229      7.116360                    
V  1    982.866335 -10215.450483  29898.878623      0.009034                    
P  2  15919.205407    121.961416 -20802.695461    598.180177                    
V  2  -7920.601067  26334.467690  -6219.289937      0.005877                    
P  3 -19287.263845  12587.686242 -13248.953564     -0.447992                    
V  3 -16962.184989    477.276632  25134.242377     -0.052196                    
P  5  26310.398771  -1565.185985  -4118.884238   -163.181289                    
V  5  -4525.776561   3892.051629 -30719.737495      0.036340                    
P  6   9867.864597  13952.568177 -20332.051773    115.465527                    
V  6  -9982.123018  23824.843508  11492.693028      0.064124                    
P  7  -4505.109797  24898.598393   7516.252283    476.716166                    
V  7  -6069.649377   7752.911645 -30210.580014     -0.013020                    
P  8 -15265.573156   4800.357435  21250.758152    -16.944566                    
V  8 -16646.590202 -21085.742631  -7212.212249     -0.014436                    
P  9   4022.542562  21507.364744 -15065.635471     32.701907                    
V  9 -13849.944096 -13351.618403 -22790.309527      0.080420                    
P 10 -12946.992272 -11965.708376  19884.211788     44.961031                    
V 10  24689.961075  -5314.157221  12837.708266      0.043246                    
P 11 -11538.672474  18666.373953  14368.497506   -622.819772                    
V 11  -3635.672978 -19433.983674  21575.641876     -0.020700                    
P 12  21369.414796 -10255.244975 -11860.985009    354.817651                    
V 12  15030.084377     29.974093  27506.409707      0.029547                    
P 13  18268.361379   5168.773052  18398.336279   -172.740763                    
V 13  11659.307072  20617.972523 -17334.840468     -0.026679                    
P 14 -14532.007083 -22306.999014   1257.189188     14.263418                    
V 14   2821.348257   -400.662710  31704.324091     -0.023728                    
P 15  13831.996446  -8092.877019  21095.391099   -288.158331                    
V 15  18082.712226  20233.115251  -3730.380465     -0.019080                    
P 16 -26386.612537   -500.738085  -4543.594949    -55.623310                    
V 16   5423.007649  -2023.775037 -31472.762654      0.034291                    
P 17  14783.337372  22133.825643   2053.380366   -197.048687                    
V 17  -3054.912085   -466.438278  31791.960875     -0.009437                    
P 18   -711.943350 -16326.708607  21433.405209    464.670663                    
V 18  25820.272113  -4500.122965  -2912.751855      0.039052                    
P 19   9662.985453  23325.959177   7329.218634   -523.897002                    
V 19  -7645.925919  -6541.873695  30403.074631     -0.003136                    
P 20  20599.827968 -13116.310443  10360.950275    379.780000                    
V 20  13864.153790     89.524654 -26966.467740      0.027943                    
P 21    -90.282708 -24311.394184  11045.169124   -500.625752                    
V 21   7345.771234 -11332.195321 -26947.186742     -0.021920                    
P 22 -17555.986016 -10130.555298  17489.674557    419.036797                    
V 22  21029.573922  -6202.972327  17582.218396     -0.026622                    
P 23  -7718.116115  14221.726063 -20821.904643   -150.723763                    
V 23 -17837.406616 -20239.888434  -7583.287501     -0.019606                    
P 24  14707.569505 -19397.663334  10363.698256     -9.586666                    
V 24  -1719.115583  13497.103513  27773.115584     -0.004890                    
P 25   9087.316912 -15075.877445 -19930.587724    -85.999906                    
V 25  24937.349445  -3020.640343  13896.017598     -0.061205                    
P 26 -21887.453817  -6065.130684 -13785.607127   -174.302697                    
V 26  16894.823950  -5075.084628 -24553.884736     -0.173522                    
P 27 -19858.934812  -6229.023513  16556.980120     46.062563                    
V 27 -12143.270846 -17194.400669 -20872.513443      0.033508                    
P 28  11498.422105  12772.425601  20907.143138    489.631733                    
V 28 -24874.374696   2782.262508  12300.085647      0.026265                    
P 29   -586.798442 -20351.585656 -17059.729554    649.001155                    
V 29  13957.201064  16605.903906 -20233.807039      0.013608                    
P 30   3169.655116  20714.048333  16271.223650     73.602236                    
V 30 -10522.609613  17960.242013 -20889.626109      0.051364                    
P 31 -10381.283414 -12232.487645 -20974.244257    290.469749                    
V 31  11134.537339 -24568.035682   9112.411401     -0.015405                    
P 32 -25396.534039   5226.787037  -4294.345599     54.133943                    
V 32  -5745.332505  -3196.389619  31139.895884      0.120954                    
EOF
